{
  "type": "FeatureCollection",
  "features": [
    {
      "type": "Feature",
      "properties": {
        "norad_id": 41866,
        "name": "GOES 16",
        "group": "weather",
        "lat": -0.019462840663858342,
        "lon": 63.24128638611053,
        "alt_km": 35799.187767742864,
        "timestamp": "2025-12-13T05:42:57.139543+00:00",
        "meta_object_name": "GOES 16",
        "meta_object_id": "2016-071A",
        "meta_epoch": "2025-12-12T06:08:00.873024",
        "meta_mean_motion": 1.00271491,
        "meta_eccentricity": 0.00032602,
        "meta_inclination": 0.0624,
        "meta_ra_of_asc_node": 105.942,
        "meta_arg_of_pericenter": 156.7296,
        "meta_mean_anomaly": 165.8622,
        "meta_ephemeris_type": 0,
        "meta_classification_type": "U",
        "meta_norad_cat_id": 41866,
        "meta_element_set_no": 999,
        "meta_rev_at_epoch": 3322,
        "meta_bstar": 0,
        "meta_mean_motion_dot": -8.1e-07,
        "meta_mean_motion_ddot": 0,
        "tle_line1": "1 41866U 16071A   25346.25556566 -.00000081  00000+0  00000+0 0  9998",
        "tle_line2": "2 41866   0.0624 105.9420 0003260 156.7296 165.8622  1.00271491 33222"
      },
      "geometry": {
        "type": "Point",
        "coordinates": [
          63.24128638611053,
          -0.019462840663858342
        ]
      }
    },
    {
      "type": "Feature",
      "properties": {
        "norad_id": 41882,
        "name": "FENGYUN 4A",
        "group": "weather",
        "lat": -0.9225060399020149,
        "lon": -68.2308137401778,
        "alt_km": 35777.66647754552,
        "timestamp": "2025-12-13T05:42:57.139559+00:00",
        "meta_object_name": "FENGYUN 4A",
        "meta_object_id": "2016-077A",
        "meta_epoch": "2025-12-12T07:13:17.123232",
        "meta_mean_motion": 1.0026981,
        "meta_eccentricity": 0.00048886,
        "meta_inclination": 1.8484,
        "meta_ra_of_asc_node": 82.3931,
        "meta_arg_of_pericenter": 145.6972,
        "meta_mean_anomaly": 85.3126,
        "meta_ephemeris_type": 0,
        "meta_classification_type": "U",
        "meta_norad_cat_id": 41882,
        "meta_element_set_no": 999,
        "meta_rev_at_epoch": 3305,
        "meta_bstar": 0,
        "meta_mean_motion_dot": -3.47e-06,
        "meta_mean_motion_ddot": 0,
        "tle_line1": "1 41882U 16077A   25346.30089263 -.00000347  00000+0  00000+0 0  9998",
        "tle_line2": "2 41882   1.8484  82.3931 0004888 145.6972  85.3126  1.00269810 33051"
      },
      "geometry": {
        "type": "Point",
        "coordinates": [
          -68.2308137401778,
          -0.9225060399020149
        ]
      }
    },
    {
      "type": "Feature",
      "properties": {
        "norad_id": 41884,
        "name": "CYGFM05",
        "group": "weather",
        "lat": -34.72596975720566,
        "lon": -53.36490249820935,
        "alt_km": 423.9835277659504,
        "timestamp": "2025-12-13T05:42:57.139574+00:00",
        "meta_object_name": "CYGFM05",
        "meta_object_id": "2016-078A",
        "meta_epoch": "2025-12-12T05:21:32.414976",
        "meta_mean_motion": 15.4760679,
        "meta_eccentricity": 0.0010052,
        "meta_inclination": 34.9602,
        "meta_ra_of_asc_node": 50.5042,
        "meta_arg_of_pericenter": 178.7379,
        "meta_mean_anomaly": 181.3369,
        "meta_ephemeris_type": 0,
        "meta_classification_type": "U",
        "meta_norad_cat_id": 41884,
        "meta_element_set_no": 999,
        "meta_rev_at_epoch": 49968,
        "meta_bstar": 0.00050410393,
        "meta_mean_motion_dot": 0.00026884,
        "meta_mean_motion_ddot": 0,
        "tle_line1": "1 41884U 16078A   25346.22329184  .00026884  00000+0  50410-3 0  9998",
        "tle_line2": "2 41884  34.9602  50.5042 0010052 178.7379 181.3369 15.47606790499689"
      },
      "geometry": {
        "type": "Point",
        "coordinates": [
          -53.36490249820935,
          -34.72596975720566
        ]
      }
    },
    {
      "type": "Feature",
      "properties": {
        "norad_id": 41885,
        "name": "CYGFM04",
        "group": "weather",
        "lat": 17.582421950838384,
        "lon": 171.6396692371965,
        "alt_km": 409.51886785835995,
        "timestamp": "2025-12-13T05:42:57.139588+00:00",
        "meta_object_name": "CYGFM04",
        "meta_object_id": "2016-078B",
        "meta_epoch": "2025-12-12T05:53:54.730176",
        "meta_mean_motion": 15.50323569,
        "meta_eccentricity": 0.00094005,
        "meta_inclination": 34.9354,
        "meta_ra_of_asc_node": 25.1489,
        "meta_arg_of_pericenter": 206.3964,
        "meta_mean_anomaly": 153.628,
        "meta_ephemeris_type": 0,
        "meta_classification_type": "U",
        "meta_norad_cat_id": 41885,
        "meta_element_set_no": 999,
        "meta_rev_at_epoch": 49986,
        "meta_bstar": 0.00051410265,
        "meta_mean_motion_dot": 0.00030184,
        "meta_mean_motion_ddot": 0,
        "tle_line1": "1 41885U 16078B   25346.24577234  .00030184  00000+0  51410-3 0  9991",
        "tle_line2": "2 41885  34.9354  25.1489 0009400 206.3964 153.6280 15.50323569499868"
      },
      "geometry": {
        "type": "Point",
        "coordinates": [
          171.6396692371965,
          17.582421950838384
        ]
      }
    },
    {
      "type": "Feature",
      "properties": {
        "norad_id": 41886,
        "name": "CYGFM02",
        "group": "weather",
        "lat": 9.262344823714576,
        "lon": -176.54856615739618,
        "alt_km": 404.53002065416786,
        "timestamp": "2025-12-13T05:42:57.139603+00:00",
        "meta_object_name": "CYGFM02",
        "meta_object_id": "2016-078C",
        "meta_epoch": "2025-12-12T05:51:11.346048",
        "meta_mean_motion": 15.51700404,
        "meta_eccentricity": 0.00110763,
        "meta_inclination": 34.9444,
        "meta_ra_of_asc_node": 23.4939,
        "meta_arg_of_pericenter": 205.9628,
        "meta_mean_anomaly": 154.054,
        "meta_ephemeris_type": 0,
        "meta_classification_type": "U",
        "meta_norad_cat_id": 41886,
        "meta_element_set_no": 999,
        "meta_rev_at_epoch": 49999,
        "meta_bstar": 0.00052311112,
        "meta_mean_motion_dot": 0.00032299,
        "meta_mean_motion_ddot": 0,
        "tle_line1": "1 41886U 16078C   25346.24388132  .00032299  00000+0  52311-3 0  9999",
        "tle_line2": "2 41886  34.9444  23.4939 0011076 205.9628 154.0540 15.51700404499990"
      },
      "geometry": {
        "type": "Point",
        "coordinates": [
          -176.54856615739618,
          9.262344823714576
        ]
      }
    },
    {
      "type": "Feature",
      "properties": {
        "norad_id": 41887,
        "name": "CYGFM01",
        "group": "weather",
        "lat": -26.33011843522549,
        "lon": 1.08703082542323,
        "alt_km": 427.49488009827473,
        "timestamp": "2025-12-13T05:42:57.139616+00:00",
        "meta_object_name": "CYGFM01",
        "meta_object_id": "2016-078D",
        "meta_epoch": "2025-12-11T13:41:51.415872",
        "meta_mean_motion": 15.48145499,
        "meta_eccentricity": 0.00094988,
        "meta_inclination": 34.9432,
        "meta_ra_of_asc_node": 57.1248,
        "meta_arg_of_pericenter": 164.4483,
        "meta_mean_anomaly": 195.6532,
        "meta_ephemeris_type": 0,
        "meta_classification_type": "U",
        "meta_norad_cat_id": 41887,
        "meta_element_set_no": 999,
        "meta_rev_at_epoch": 49952,
        "meta_bstar": 0.00051763933,
        "meta_mean_motion_dot": 0.00028132,
        "meta_mean_motion_ddot": 0,
        "tle_line1": "1 41887U 16078D   25345.57073398  .00028132  00000+0  51764-3 0  9992",
        "tle_line2": "2 41887  34.9432  57.1248 0009498 164.4483 195.6532 15.48145499499522"
      },
      "geometry": {
        "type": "Point",
        "coordinates": [
          1.08703082542323,
          -26.33011843522549
        ]
      }
    },
    {
      "type": "Feature",
      "properties": {
        "norad_id": 41888,
        "name": "CYGFM08",
        "group": "weather",
        "lat": -0.14539322175320107,
        "lon": 28.999570304074144,
        "alt_km": 424.3488539296777,
        "timestamp": "2025-12-13T05:42:57.139631+00:00",
        "meta_object_name": "CYGFM08",
        "meta_object_id": "2016-078E",
        "meta_epoch": "2025-12-12T06:31:18.182208",
        "meta_mean_motion": 15.49390529,
        "meta_eccentricity": 0.00114957,
        "meta_inclination": 34.9463,
        "meta_ra_of_asc_node": 35.5385,
        "meta_arg_of_pericenter": 195.0278,
        "meta_mean_anomaly": 165.0104,
        "meta_ephemeris_type": 0,
        "meta_classification_type": "U",
        "meta_norad_cat_id": 41888,
        "meta_element_set_no": 999,
        "meta_rev_at_epoch": 49986,
        "meta_bstar": 0.00051630891,
        "meta_mean_motion_dot": 0.00029348,
        "meta_mean_motion_ddot": 0,
        "tle_line1": "1 41888U 16078E   25346.27173822  .00029348  00000+0  51631-3 0  9997",
        "tle_line2": "2 41888  34.9463  35.5385 0011495 195.0278 165.0104 15.49390529499861"
      },
      "geometry": {
        "type": "Point",
        "coordinates": [
          28.999570304074144,
          -0.14539322175320107
        ]
      }
    }
  ]
}